[{"OBJECT_NAME":"STARLINK-36230","OBJECT_ID":"2025-298A","EPOCH":"2026-03-09T22:51:12.218400","MEAN_MOTION":14.99139706,"ECCENTRICITY":0.00028238,"INCLINATION":70.002,"RA_OF_ASC_NODE":13.9185,"ARG_OF_PERICENTER":257.4246,"MEAN_ANOMALY":102.6598,"EPHEMERIS_TYPE":0,"CLASSIFICATION_TYPE":"U","NORAD_CAT_ID":67075,"ELEMENT_SET_NO":999,"REV_AT_EPOCH":1325,"BSTAR":0.00033799472,"MEAN_MOTION_DOT":4.027e-5,"MEAN_MOTION_DDOT":0},{"OBJECT_NAME":"FENGYUN 1C DEB","OBJECT_ID":"1999-025ECN","EPOCH":"2026-03-02T11:35:56.929056","MEAN_MOTION":14.49527005,"ECCENTRICITY":0.0254766,"INCLINATION":99.2938,"RA_OF_ASC_NODE":323.2209,"ARG_OF_PERICENTER":11.3971,"MEAN_ANOMALY":349.2842,"EPHEMERIS_TYPE":0,"CLASSIFICATION_TYPE":"U","NORAD_CAT_ID":37006,"ELEMENT_SET_NO":999,"REV_AT_EPOCH":66269,"BSTAR":0.0010822805,"MEAN_MOTION_DOT":6.233e-5,"MEAN_MOTION_DDOT":0}]
